{
  "type": "FeatureCollection",
  "features": [
    {
      "type": "Feature",
      "properties": {
        "norad_id": 66340,
        "name": "STARLINK-35218",
        "group": "last-30-days",
        "lat": -37.79468208582399,
        "lon": -35.812333967156164,
        "alt_km": 418.75208143716645,
        "timestamp": "2025-12-06T14:35:35.908173+00:00",
        "meta_object_name": "STARLINK-35218",
        "meta_object_id": "2025-253X",
        "meta_epoch": "2025-12-06T04:02:51.201024",
        "meta_mean_motion": 15.50655744,
        "meta_eccentricity": 0.00022928,
        "meta_inclination": 43.0005,
        "meta_ra_of_asc_node": 23.088,
        "meta_arg_of_pericenter": 66.3464,
        "meta_mean_anomaly": 293.7636,
        "meta_ephemeris_type": 0,
        "meta_classification_type": "U",
        "meta_norad_cat_id": 66340,
        "meta_element_set_no": 999,
        "meta_rev_at_epoch": 591,
        "meta_bstar": 0.0016588632,
        "meta_mean_motion_dot": 0.00098481,
        "meta_mean_motion_ddot": 0,
        "tle_line1": "1 66340U 25253X   25340.16864816  .00098481  00000+0  16589-2 0  9990",
        "tle_line2": "2 66340  43.0005  23.0880 0002292  66.3464 293.7636 15.50655744  5911"
      },
      "geometry": {
        "type": "Point",
        "coordinates": [
          -35.812333967156164,
          -37.79468208582399
        ]
      }
    },
    {
      "type": "Feature",
      "properties": {
        "norad_id": 66341,
        "name": "STARLINK-35522",
        "group": "last-30-days",
        "lat": -11.670129045733523,
        "lon": -146.43258032462143,
        "alt_km": 445.0739854642161,
        "timestamp": "2025-12-06T14:35:35.908187+00:00",
        "meta_object_name": "STARLINK-35522",
        "meta_object_id": "2025-253Y",
        "meta_epoch": "2025-12-06T08:00:01.999872",
        "meta_mean_motion": 15.40724044,
        "meta_eccentricity": 9.506e-05,
        "meta_inclination": 43.0006,
        "meta_ra_of_asc_node": 22.345,
        "meta_arg_of_pericenter": 268.3961,
        "meta_mean_anomaly": 203.3611,
        "meta_ephemeris_type": 0,
        "meta_classification_type": "U",
        "meta_norad_cat_id": 66341,
        "meta_element_set_no": 999,
        "meta_rev_at_epoch": 599,
        "meta_bstar": -0.0020247219,
        "meta_mean_motion_dot": -0.0008402,
        "meta_mean_motion_ddot": 0,
        "tle_line1": "1 66341U 25253Y   25340.33335648 -.00084020  00000+0 -20247-2 0  9998",
        "tle_line2": "2 66341  43.0006  22.3450 0000950 268.3961 203.3611 15.40724044  5990"
      },
      "geometry": {
        "type": "Point",
        "coordinates": [
          -146.43258032462143,
          -11.670129045733523
        ]
      }
    },
    {
      "type": "Feature",
      "properties": {
        "norad_id": 66342,
        "name": "STARLINK-35535",
        "group": "last-30-days",
        "lat": 35.00650807913766,
        "lon": 152.19720180350717,
        "alt_km": 438.50014577099137,
        "timestamp": "2025-12-06T14:35:35.908198+00:00",
        "meta_object_name": "STARLINK-35535",
        "meta_object_id": "2025-253Z",
        "meta_epoch": "2025-12-06T03:10:22.295136",
        "meta_mean_motion": 15.40744391,
        "meta_eccentricity": 0.00010126,
        "meta_inclination": 42.9953,
        "meta_ra_of_asc_node": 23.68,
        "meta_arg_of_pericenter": 238.7307,
        "meta_mean_anomaly": 121.3451,
        "meta_ephemeris_type": 0,
        "meta_classification_type": "U",
        "meta_norad_cat_id": 66342,
        "meta_element_set_no": 999,
        "meta_rev_at_epoch": 590,
        "meta_bstar": 0.0014716249,
        "meta_mean_motion_dot": 0.0006176,
        "meta_mean_motion_ddot": 0,
        "tle_line1": "1 66342U 25253Z   25340.13220249  .00061760  00000+0  14716-2 0  9995",
        "tle_line2": "2 66342  42.9953  23.6800 0001012 238.7307 121.3451 15.40744391  5907"
      },
      "geometry": {
        "type": "Point",
        "coordinates": [
          152.19720180350717,
          35.00650807913766
        ]
      }
    },
    {
      "type": "Feature",
      "properties": {
        "norad_id": 66343,
        "name": "STARLINK-35467",
        "group": "last-30-days",
        "lat": 42.83070146380919,
        "lon": 105.17286260533885,
        "alt_km": 437.5279989398723,
        "timestamp": "2025-12-06T14:35:35.908211+00:00",
        "meta_object_name": "STARLINK-35467",
        "meta_object_id": "2025-253AA",
        "meta_epoch": "2025-12-05T10:13:10.196544",
        "meta_mean_motion": 15.4068652,
        "meta_eccentricity": 0.00016188,
        "meta_inclination": 43.0002,
        "meta_ra_of_asc_node": 27.8393,
        "meta_arg_of_pericenter": 247.6341,
        "meta_mean_anomaly": 112.4344,
        "meta_ephemeris_type": 0,
        "meta_classification_type": "U",
        "meta_norad_cat_id": 66343,
        "meta_element_set_no": 999,
        "meta_rev_at_epoch": 579,
        "meta_bstar": 0.0027904009,
        "meta_mean_motion_dot": 0.00118025,
        "meta_mean_motion_ddot": 0,
        "tle_line1": "1 66343U 25253AA  25339.42581246  .00118025  00000+0  27904-2 0  9993",
        "tle_line2": "2 66343  43.0002  27.8393 0001618 247.6341 112.4344 15.40686520  5795"
      },
      "geometry": {
        "type": "Point",
        "coordinates": [
          105.17286260533885,
          42.83070146380919
        ]
      }
    },
    {
      "type": "Feature",
      "properties": {
        "norad_id": 66344,
        "name": "STARLINK-35511",
        "group": "last-30-days",
        "lat": -38.73272711346783,
        "lon": -38.8768639579672,
        "alt_km": 437.8870020114491,
        "timestamp": "2025-12-06T14:35:35.908222+00:00",
        "meta_object_name": "STARLINK-35511",
        "meta_object_id": "2025-253AB",
        "meta_epoch": "2025-12-06T08:00:01.999872",
        "meta_mean_motion": 15.44807818,
        "meta_eccentricity": 9.646e-05,
        "meta_inclination": 42.9998,
        "meta_ra_of_asc_node": 22.1161,
        "meta_arg_of_pericenter": 281.9577,
        "meta_mean_anomaly": 282.5932,
        "meta_ephemeris_type": 0,
        "meta_classification_type": "U",
        "meta_norad_cat_id": 66344,
        "meta_element_set_no": 999,
        "meta_rev_at_epoch": 590,
        "meta_bstar": -0.048455484,
        "meta_mean_motion_dot": -0.02064267,
        "meta_mean_motion_ddot": 0,
        "tle_line1": "1 66344U 25253AB  25340.33335648 -.02064267  00000+0 -48455-1 0  9994",
        "tle_line2": "2 66344  42.9998  22.1161 0000964 281.9577 282.5932 15.44807818  5908"
      },
      "geometry": {
        "type": "Point",
        "coordinates": [
          -38.8768639579672,
          -38.73272711346783
        ]
      }
    },
    {
      "type": "Feature",
      "properties": {
        "norad_id": 66345,
        "name": "STARLINK-35440",
        "group": "last-30-days",
        "lat": -19.751037879357224,
        "lon": -136.6110199983561,
        "alt_km": 445.4348665363168,
        "timestamp": "2025-12-06T14:35:35.908233+00:00",
        "meta_object_name": "STARLINK-35440",
        "meta_object_id": "2025-253AC",
        "meta_epoch": "2025-12-06T08:00:01.999872",
        "meta_mean_motion": 15.40785189,
        "meta_eccentricity": 0.00010551,
        "meta_inclination": 43.0006,
        "meta_ra_of_asc_node": 22.3096,
        "meta_arg_of_pericenter": 243.3248,
        "meta_mean_anomaly": 240.8605,
        "meta_ephemeris_type": 0,
        "meta_classification_type": "U",
        "meta_norad_cat_id": 66345,
        "meta_element_set_no": 999,
        "meta_rev_at_epoch": 590,
        "meta_bstar": -0.0046900628,
        "meta_mean_motion_dot": -0.00191911,
        "meta_mean_motion_ddot": 0,
        "tle_line1": "1 66345U 25253AC  25340.33335648 -.00191911  00000+0 -46901-2 0  9995",
        "tle_line2": "2 66345  43.0006  22.3096 0001055 243.3248 240.8605 15.40785189  5905"
      },
      "geometry": {
        "type": "Point",
        "coordinates": [
          -136.6110199983561,
          -19.751037879357224
        ]
      }
    },
    {
      "type": "Feature",
      "properties": {
        "norad_id": 66346,
        "name": "STARLINK-35482",
        "group": "last-30-days",
        "lat": -42.07399315394153,
        "lon": -83.75558179622342,
        "alt_km": 446.74366077905324,
        "timestamp": "2025-12-06T14:35:35.908243+00:00",
        "meta_object_name": "STARLINK-35482",
        "meta_object_id": "2025-253AD",
        "meta_epoch": "2025-12-06T08:00:01.999872",
        "meta_mean_motion": 15.40637738,
        "meta_eccentricity": 0.00011064,
        "meta_inclination": 43.0003,
        "meta_ra_of_asc_node": 22.1886,
        "meta_arg_of_pericenter": 266.9569,
        "meta_mean_anomaly": 267.0385,
        "meta_ephemeris_type": 0,
        "meta_classification_type": "U",
        "meta_norad_cat_id": 66346,
        "meta_element_set_no": 999,
        "meta_rev_at_epoch": 599,
        "meta_bstar": 0.0012178401,
        "meta_mean_motion_dot": 0.00050802,
        "meta_mean_motion_ddot": 0,
        "tle_line1": "1 66346U 25253AD  25340.33335648  .00050802  00000+0  12178-2 0  9996",
        "tle_line2": "2 66346  43.0003  22.1886 0001106 266.9569 267.0385 15.40637738  5993"
      },
      "geometry": {
        "type": "Point",
        "coordinates": [
          -83.75558179622342,
          -42.07399315394153
        ]
      }
    }
  ]
}